format  = 'OEF1.1'       ! file format
rectype = 'ML'           ! record type (1L/ML)
refsys  = ECLM J2000     ! default reference system
END_OF_HEADER
8014
! Equinoctial elements: a, e*sin(LP), e*cos(LP), tan(i/2)*sin(LN), tan(i/2)*cos(LN), mean long.
 EQU   1.74670453649855E+00 -0.264665311328287  0.371061385001089 -0.008282017732090 -0.013951877263266 253.3687342111352
 MJD     48789.37100179 TDT
 MAG  18.542  0.150
! RMS    2.90818E-08   1.13112E-07   1.51204E-07   1.00274E-07   3.22559E-08   1.60096E-05
! EIG   9.15635E-11   1.07053E-09   1.99950E-08   7.85066E-08   1.06234E-07   3.28365E-07
! WEA  -0.01102   0.32852   0.42617   0.00300   0.00143   0.84281
 COV   8.457486016536395E-16  4.280802696167221E-16  1.075446224886316E-15
 COV   1.361778996694595E-16 -3.485958588782195E-17 -1.208500107370248E-13
 COV   1.279441172770013E-14  1.636401858087349E-14 -1.060770117049596E-15
 COV   3.671630390409857E-16  1.648723055679289E-12  2.286260003508678E-14
 COV   9.909722110236954E-16 -1.069882898317096E-16  2.096614778693495E-12
 COV   1.005491879600996E-14 -3.194034611348099E-15  1.536022001384237E-14
 COV   1.040442511630902E-15  5.925445816075361E-15  2.563069875446003E-10
 NOR   8.151558685742987E+19 -1.430236211607230E+19 -2.302015995559307E+19
 NOR   1.277382056579136E+19  4.281999196694048E+19  3.169881002112428E+17
 NOR   2.552471473153878E+18  4.012192719616478E+18 -2.172614136801215E+18
 NOR  -7.319910378869565E+18 -5.568336745794149E+16  6.517849133609417E+18
 NOR  -3.650426355493231E+18 -1.221370401743934E+19 -8.947846979769691E+16
 NOR   2.115687886935320E+18  7.031908962939831E+18  4.956996573200610E+16
 NOR   2.340329329196866E+19  1.662227301514476E+17  1.232783401181840E+15
!MOID  0.01741    0
!NODES  0.69086  0.17577
